{"type": "FeatureCollection", "features": [ {"type": "Feature", "properties": {"norad_id": 37278, "name": "COSMOS 2251 DEB", "group": "cosmos-2251-debris", "lat": 18.778425351222076, "lon": 176.47902736173475, "alt_km": 645.3915179543847, "timestamp": "2025-12-05T14:45:15.695133+00:00", "meta": {"OBJECT_NAME": "COSMOS 2251 DEB", "OBJECT_ID": "1993-036BHS", "EPOCH": "2025-12-04T09:26:36.152736", "MEAN_MOTION": 14.15029915, "ECCENTRICITY": 0.029998, "INCLINATION": 73.7864, "RA_OF_ASC_NODE": 4.3592, "ARG_OF_PERICENTER": 188.2556, "MEAN_ANOMALY": 234.4903, "EPHEMERIS_TYPE": 0, "CLASSIFICATION_TYPE": "U", "NORAD_CAT_ID": 37278, "ELEMENT_SET_NO": 999, "REV_AT_EPOCH": 63711, "BSTAR": 0.0023061, "MEAN_MOTION_DOT": 6.884e-05, "MEAN_MOTION_DDOT": 0}, "tle": {"line1": "1 37278U 93036BHS 25338.39347399  .00006884  00000+0  23061-2 0  9995", "line2": "2 37278  73.7864   4.3592 0299980 188.2556 234.4903 14.15029915637119"}}, "geometry": {"type": "Point", "coordinates": [176.47902736173475, 18.778425351222076]}}, {"type": "Feature", "properties": {"norad_id": 37280, "name": "COSMOS 2251 DEB", "group": "cosmos-2251-debris", "lat": 2.9407502430064674, "lon": 70.6490538339778, "alt_km": 920.9724445735928, "timestamp": "2025-12-05T14:45:15.695143+00:00", "meta": {"OBJECT_NAME": "COSMOS 2251 DEB", "OBJECT_ID": "1993-036BHU", "EPOCH": "2025-12-04T13:21:48.237120", "MEAN_MOTION": 14.19216937, "ECCENTRICITY": 0.0131743, "INCLINATION": 74.0324, "RA_OF_ASC_NODE": 71.6963, "ARG_OF_PERICENTER": 201.9904, "MEAN_ANOMALY": 157.5557, "EPHEMERIS_TYPE": 0, "CLASSIFICATION_TYPE": "U", "NORAD_CAT_ID": 37280, "ELEMENT_SET_NO": 999, "REV_AT_EPOCH": 57207, "BSTAR": 0.0039617, "MEAN_MOTION_DOT": 9.037e-05, "MEAN_MOTION_DDOT": 0}, "tle": {"line1": "1 37280U 93036BHU 25338.55680830  .00009037  00000+0  39617-2 0  9993", "line2": "2 37280  74.0324  71.6963 0131743 201.9904 157.5557 14.19216937572077"}}, "geometry": {"type": "Point", "coordinates": [70.6490538339778, 2.9407502430064674]}}, {"type": "Feature", "properties": {"norad_id": 37284, "name": "COSMOS 2251 DEB", "group": "cosmos-2251-debris", "lat": 8.924966079503283, "lon": -13.238309342684929, "alt_km": 953.6349311006388, "timestamp": "2025-12-05T14:45:15.695153+00:00", "meta": {"OBJECT_NAME": "COSMOS 2251 DEB", "OBJECT_ID": "1993-036BHY", "EPOCH": "2025-12-03T06:41:07.429344", "MEAN_MOTION": 14.12637571, "ECCENTRICITY": 0.0160501, "INCLINATION": 74.014, "RA_OF_ASC_NODE": 173.4758, "ARG_OF_PERICENTER": 327.2268, "MEAN_ANOMALY": 208.0827, "EPHEMERIS_TYPE": 0, "CLASSIFICATION_TYPE": "U", "NORAD_CAT_ID": 37284, "ELEMENT_SET_NO": 999, "REV_AT_EPOCH": 59041, "BSTAR": 0.0016372, "MEAN_MOTION_DOT": 3.402e-05, "MEAN_MOTION_DDOT": 0}, "tle": {"line1": "1 37284U 93036BHY 25337.27855821  .00003402  00000+0  16372-2 0  9992", "line2": "2 37284  74.0140 173.4758 0160501 327.2268 208.0827 14.12637571590413"}}, "geometry": {"type": "Point", "coordinates": [-13.238309342684929, 8.924966079503283]}}, {"type": "Feature", "properties": {"norad_id": 37295, "name": "COSMOS 2251 DEB", "group": "cosmos-2251-debris", "lat": -54.745244735444295, "lon": -88.57500834387398, "alt_km": 714.02046406515, "timestamp": "2025-12-05T14:45:15.695163+00:00", "meta": {"OBJECT_NAME": "COSMOS 2251 DEB", "OBJECT_ID": "1993-036BJK", "EPOCH": "2025-12-01T04:30:08.731584", "MEAN_MOTION": 14.65123594, "ECCENTRICITY": 0.00437469, "INCLINATION": 74.0068, "RA_OF_ASC_NODE": 303.8923, "ARG_OF_PERICENTER": 126.7963, "MEAN_ANOMALY": 233.7233, "EPHEMERIS_TYPE": 0, "CLASSIFICATION_TYPE": "U", "NORAD_CAT_ID": 37295, "ELEMENT_SET_NO": 999, "REV_AT_EPOCH": 82135, "BSTAR": 0.00057778641, "MEAN_MOTION_DOT": 3.118e-05, "MEAN_MOTION_DDOT": 0}, "tle": {"line1": "1 37295U 93036BJK 25335.18760106  .00003118  00000+0  57779-3 0  9994", "line2": "2 37295  74.0068 303.8923 0043746 126.7963 233.7233 14.65123594821351"}}, "geometry": {"type": "Point", "coordinates": [-88.57500834387398, -54.745244735444295]}}, {"type": "Feature", "properties": {"norad_id": 37305, "name": "COSMOS 2251 DEB", "group": "cosmos-2251-debris", "lat": 65.28901871102939, "lon": 84.76865700129295, "alt_km": 797.7166331300396, "timestamp": "2025-12-05T14:45:15.695173+00:00", "meta": {"OBJECT_NAME": "COSMOS 2251 DEB", "OBJECT_ID": "1993-036BJV", "EPOCH": "2025-12-01T04:54:57.845088", "MEAN_MOTION": 14.36058989, "ECCENTRICITY": 0.0050534, "INCLINATION": 73.8694, "RA_OF_ASC_NODE": 311.9126, "ARG_OF_PERICENTER": 273.9871, "MEAN_ANOMALY": 85.5504, "EPHEMERIS_TYPE": 0, "CLASSIFICATION_TYPE": "U", "NORAD_CAT_ID": 37305, "ELEMENT_SET_NO": 999, "REV_AT_EPOCH": 66701, "BSTAR": 0.00088749, "MEAN_MOTION_DOT": 2.593e-05, "MEAN_MOTION_DDOT": 0}, "tle": {"line1": "1 37305U 93036BJV 25335.20483617  .00002593  00000+0  88749-3 0  9995", "line2": "2 37305  73.8694 311.9126 0050534 273.9871  85.5504 14.36058989667014"}}, "geometry": {"type": "Point", "coordinates": [84.76865700129295, 65.28901871102939]}}, {"type": "Feature", "properties": {"norad_id": 37312, "name": "COSMOS 2251 DEB", "group": "cosmos-2251-debris", "lat": -68.6170868693498, "lon": 84.47283924327633, "alt_km": 739.9895798029265, "timestamp": "2025-12-05T14:45:15.695184+00:00", "meta": {"OBJECT_NAME": "COSMOS 2251 DEB", "OBJECT_ID": "1993-036BKC", "EPOCH": "2025-12-03T01:48:10.090656", "MEAN_MOTION": 14.46074055, "ECCENTRICITY": 0.00181668, "INCLINATION": 74.0321, "RA_OF_ASC_NODE": 222.2189, "ARG_OF_PERICENTER": 326.4091, "MEAN_ANOMALY": 33.5914, "EPHEMERIS_TYPE": 0, "CLASSIFICATION_TYPE": "U", "NORAD_CAT_ID": 37312, "ELEMENT_SET_NO": 999, "REV_AT_EPOCH": 86024, "BSTAR": 0.00063141036, "MEAN_MOTION_DOT": 2.231e-05, "MEAN_MOTION_DDOT": 0}, "tle": {"line1": "1 37312U 93036BKC 25337.07511679  .00002231  00000+0  63141-3 0  9998", "line2": "2 37312  74.0321 222.2189 0018166 326.4091  33.5914 14.46074055860249"}}, "geometry": {"type": "Point", "coordinates": [84.47283924327633, -68.6170868693498]}}, {"type": "Feature", "properties": {"norad_id": 37316, "name": "COSMOS 2251 DEB", "group": "cosmos-2251-debris", "lat": -58.67498398810017, "lon": 7.339155287152587, "alt_km": 609.9007494156349, "timestamp": "2025-12-05T14:45:15.695194+00:00", "meta": {"OBJECT_NAME": "COSMOS 2251 DEB", "OBJECT_ID": "1993-036BKG", "EPOCH": "2025-12-03T03:33:34.876512", "MEAN_MOTION": 14.93653646, "ECCENTRICITY": 0.00242896, "INCLINATION": 74.0165, "RA_OF_ASC_NODE": 40.4029, "ARG_OF_PERICENTER": 114.0887, "MEAN_ANOMALY": 246.2841, "EPHEMERIS_TYPE": 0, "CLASSIFICATION_TYPE": "U", "NORAD_CAT_ID": 37316, "ELEMENT_SET_NO": 999, "REV_AT_EPOCH": 86000, "BSTAR": 0.00081669727, "MEAN_MOTION_DOT": 8.654e-05, "MEAN_MOTION_DDOT": 0}, "tle": {"line1": "1 37316U 93036BKG 25337.14832033  .00008654  00000+0  81670-3 0  9992", "line2": "2 37316  74.0165  40.4029 0024289 114.0887 246.2841 14.93653646860006"}}, "geometry": {"type": "Point", "coordinates": [7.339155287152587, -58.67498398810017]}}, {"type": "Feature", "properties": {"norad_id": 37320, "name": "COSMOS 2251 DEB", "group": "cosmos-2251-debris", "lat": 61.58132659926046, "lon": 20.246644706294408, "alt_km": 656.6352971528468, "timestamp": "2025-12-05T14:45:15.695204+00:00", "meta": {"OBJECT_NAME": "COSMOS 2251 DEB", "OBJECT_ID": "1993-036BKL", "EPOCH": "2025-12-04T10:38:11.970240", "MEAN_MOTION": 14.78611049, "ECCENTRICITY": 0.0046988, "INCLINATION": 74.0467, "RA_OF_ASC_NODE": 234.4603, "ARG_OF_PERICENTER": 323.115, "MEAN_ANOMALY": 36.6796, "EPHEMERIS_TYPE": 0, "CLASSIFICATION_TYPE": "U", "NORAD_CAT_ID": 37320, "ELEMENT_SET_NO": 999, "REV_AT_EPOCH": 66024, "BSTAR": 0.0023021, "MEAN_MOTION_DOT": 0.00017178, "MEAN_MOTION_DDOT": 0}, "tle": {"line1": "1 37320U 93036BKL 25338.44319410  .00017178  00000+0  23021-2 0  9996", "line2": "2 37320  74.0467 234.4603 0046988 323.1150  36.6796 14.78611049660243"}}, "geometry": {"type": "Point", "coordinates": [20.246644706294408, 61.58132659926046]}}, {"type": "Feature", "properties": {"norad_id": 37326, "name": "COSMOS 2251 DEB", "group": "cosmos-2251-debris", "lat": 36.97244545889068, "lon": 0.7874869955310451, "alt_km": 679.0814202492656, "timestamp": "2025-12-05T14:45:15.695214+00:00", "meta": {"OBJECT_NAME": "COSMOS 2251 DEB", "OBJECT_ID": "1993-036BKS", "EPOCH": "2025-12-04T07:21:50.716800", "MEAN_MOTION": 14.61511015, "ECCENTRICITY": 0.0054375, "INCLINATION": 74.026, "RA_OF_ASC_NODE": 350.8371, "ARG_OF_PERICENTER": 122.6776, "MEAN_ANOMALY": 237.9652, "EPHEMERIS_TYPE": 0, "CLASSIFICATION_TYPE": "U", "NORAD_CAT_ID": 37326, "ELEMENT_SET_NO": 999, "REV_AT_EPOCH": 85360, "BSTAR": 0.001033, "MEAN_MOTION_DOT": 5.206e-05, "MEAN_MOTION_DDOT": 0}, "tle": {"line1": "1 37326U 93036BKS 25338.30683700  .00005206  00000+0  10330-2 0  9991", "line2": "2 37326  74.0260 350.8371 0054375 122.6776 237.9652 14.61511015853605"}}, "geometry": {"type": "Point", "coordinates": [0.7874869955310451, 36.97244545889068]}}, {"type": "Feature", "properties": {"norad_id": 37330, "name": "COSMOS 2251 DEB", "group": "cosmos-2251-debris", "lat": 73.79621638524453, "lon": 29.190216969654553, "alt_km": 674.5284672457292, "timestamp": "2025-12-05T14:45:15.695225+00:00", "meta": {"OBJECT_NAME": "COSMOS 2251 DEB", "OBJECT_ID": "1993-036BKW", "EPOCH": "2025-12-04T15:19:22.190592", "MEAN_MOTION": 14.59502669, "ECCENTRICITY": 0.0057384, "INCLINATION": 74.017, "RA_OF_ASC_NODE": 310.5526, "ARG_OF_PERICENTER": 161.3662, "MEAN_ANOMALY": 198.9623, "EPHEMERIS_TYPE": 0, "CLASSIFICATION_TYPE": "U", "NORAD_CAT_ID": 37330, "ELEMENT_SET_NO": 999, "REV_AT_EPOCH": 86250, "BSTAR": 0.00055935, "MEAN_MOTION_DOT": 2.687e-05, "MEAN_MOTION_DDOT": 0}, "tle": {"line1": "1 37330U 93036BKW 25338.63845128  .00002687  00000+0  55935-3 0  9997", "line2": "2 37330  74.0170 310.5526 0057384 161.3662 198.9623 14.59502669862507"}}, "geometry": {"type": "Point", "coordinates": [29.190216969654553, 73.79621638524453]}}]}